[
  {
    "CCSDS_OMM_VERS": "2.0",
    "COMMENT": "GENERATED VIA SPACE-TRACK.ORG API",
    "CREATION_DATE": "2021-12-04T02:39:20",
    "ORIGINATOR": "18 SPCS",
    "OBJECT_NAME": "OPS 4467 B",
    "OBJECT_ID": "1964-031B",
    "CENTER_NAME": "EARTH",
    "REF_FRAME": "TEME",
    "TIME_SYSTEM": "UTC",
    "MEAN_ELEMENT_THEORY": "SGP4",
    "EPOCH": "2021-12-03T14:25:02.440416",
    "MEAN_MOTION": "14.23091233",
    "ECCENTRICITY": "0.00059340",
    "INCLINATION": "99.7934",
    "RA_OF_ASC_NODE": "275.1494",
    "ARG_OF_PERICENTER": "125.0691",
    "MEAN_ANOMALY": "235.1041",
    "EPHEMERIS_TYPE": "0",
    "CLASSIFICATION_TYPE": "U",
    "NORAD_CAT_ID": "813",
    "ELEMENT_SET_NO": "999",
    "REV_AT_EPOCH": "97925",
    "BSTAR": "0.00001824300000",
    "MEAN_MOTION_DOT": "-0.00000012",
    "MEAN_MOTION_DDOT": "0.0000000000000",
    "SEMIMAJOR_AXIS": "7193.054",
    "PERIOD": "101.188",
    "APOAPSIS": "819.188",
    "PERIAPSIS": "810.651",
    "OBJECT_TYPE": "PAYLOAD",
    "RCS_SIZE": "MEDIUM",
    "COUNTRY_CODE": "US",
    "LAUNCH_DATE": "1964-06-18",
    "SITE": "AFWTR",
    "DECAY_DATE": null,
    "FILE": "3231910",
    "GP_ID": "191018551",
    "TLE_LINE0": "0 OPS 4467 B",
    "TLE_LINE1": "1 00813U 64031B   21337.60072269 -.00000012  00000-0  18243-4 0  9990",
    "TLE_LINE2": "2 00813  99.7934 275.1494 0005934 125.0691 235.1041 14.23091233979258"
  },
  {
    "CCSDS_OMM_VERS": "2.0",
    "COMMENT": "GENERATED VIA SPACE-TRACK.ORG API",
    "CREATION_DATE": "2021-12-03T17:32:05",
    "ORIGINATOR": "18 SPCS",
    "OBJECT_NAME": "THOR AGENA D R\/B",
    "OBJECT_ID": "1964-031C",
    "CENTER_NAME": "EARTH",
    "REF_FRAME": "TEME",
    "TIME_SYSTEM": "UTC",
    "MEAN_ELEMENT_THEORY": "SGP4",
    "EPOCH": "2021-12-03T11:53:00.434688",
    "MEAN_MOTION": "14.27389478",
    "ECCENTRICITY": "0.00110860",
    "INCLINATION": "99.8118",
    "RA_OF_ASC_NODE": "56.2605",
    "ARG_OF_PERICENTER": "285.5257",
    "MEAN_ANOMALY": "74.4696",
    "EPHEMERIS_TYPE": "0",
    "CLASSIFICATION_TYPE": "U",
    "NORAD_CAT_ID": "815",
    "ELEMENT_SET_NO": "999",
    "REV_AT_EPOCH": "98457",
    "BSTAR": "0.00003340600000",
    "MEAN_MOTION_DOT": "0.00000028",
    "MEAN_MOTION_DDOT": "0.0000000000000",
    "SEMIMAJOR_AXIS": "7178.607",
    "PERIOD": "100.883",
    "APOAPSIS": "808.430",
    "PERIAPSIS": "792.514",
    "OBJECT_TYPE": "ROCKET BODY",
    "RCS_SIZE": "LARGE",
    "COUNTRY_CODE": "US",
    "LAUNCH_DATE": "1964-06-18",
    "SITE": "AFWTR",
    "DECAY_DATE": null,
    "FILE": "3231740",
    "GP_ID": "190990865",
    "TLE_LINE0": "0 THOR AGENA D R\/B",
    "TLE_LINE1": "1 00815U 64031C   21337.49514392  .00000028  00000-0  33406-4 0  9991",
    "TLE_LINE2": "2 00815  99.8118  56.2605 0011086 285.5257  74.4696 14.27389478984578"
  },
  {
    "CCSDS_OMM_VERS": "2.0",
    "COMMENT": "GENERATED VIA SPACE-TRACK.ORG API",
    "CREATION_DATE": "2021-12-03T17:32:05",
    "ORIGINATOR": "18 SPCS",
    "OBJECT_NAME": "ELEKTRON 3",
    "OBJECT_ID": "1964-038A",
    "CENTER_NAME": "EARTH",
    "REF_FRAME": "TEME",
    "TIME_SYSTEM": "UTC",
    "MEAN_ELEMENT_THEORY": "SGP4",
    "EPOCH": "2021-12-03T10:06:11.458080",
    "MEAN_MOTION": "9.14363436",
    "ECCENTRICITY": "0.29791930",
    "INCLINATION": "60.8257",
    "RA_OF_ASC_NODE": "321.6053",
    "ARG_OF_PERICENTER": "267.8987",
    "MEAN_ANOMALY": "58.3036",
    "EPHEMERIS_TYPE": "0",
    "CLASSIFICATION_TYPE": "U",
    "NORAD_CAT_ID": "829",
    "ELEMENT_SET_NO": "999",
    "REV_AT_EPOCH": "86339",
    "BSTAR": "0.00017179000000",
    "MEAN_MOTION_DOT": "0.00000608",
    "MEAN_MOTION_DDOT": "0.0000000000000",
    "SEMIMAJOR_AXIS": "9660.270",
    "PERIOD": "157.487",
    "APOAPSIS": "6160.116",
    "PERIAPSIS": "404.154",
    "OBJECT_TYPE": "PAYLOAD",
    "RCS_SIZE": "LARGE",
    "COUNTRY_CODE": "CIS",
    "LAUNCH_DATE": "1964-07-10",
    "SITE": "TTMTR",
    "DECAY_DATE": null,
    "FILE": "3231740",
    "GP_ID": "190990113",
    "TLE_LINE0": "0 ELEKTRON 3",
    "TLE_LINE1": "1 00829U 64038A   21337.42096595  .00000608  00000-0  17179-3 0  9998",
    "TLE_LINE2": "2 00829  60.8257 321.6053 2979193 267.8987  58.3036  9.14363436863399"
  },
  {
    "CCSDS_OMM_VERS": "2.0",
    "COMMENT": "GENERATED VIA SPACE-TRACK.ORG API",
    "CREATION_DATE": "2021-12-03T17:32:05",
    "ORIGINATOR": "18 SPCS",
    "OBJECT_NAME": "ELEKTRON 3 DEB",
    "OBJECT_ID": "1964-038C",
    "CENTER_NAME": "EARTH",
    "REF_FRAME": "TEME",
    "TIME_SYSTEM": "UTC",
    "MEAN_ELEMENT_THEORY": "SGP4",
    "EPOCH": "2021-12-03T10:55:44.120064",
    "MEAN_MOTION": "12.05840375",
    "ECCENTRICITY": "0.15752950",
    "INCLINATION": "60.7196",
    "RA_OF_ASC_NODE": "241.1105",
    "ARG_OF_PERICENTER": "295.3088",
    "MEAN_ANOMALY": "49.2971",
    "EPHEMERIS_TYPE": "0",
    "CLASSIFICATION_TYPE": "U",
    "NORAD_CAT_ID": "831",
    "ELEMENT_SET_NO": "999",
    "REV_AT_EPOCH": "16046",
    "BSTAR": "0.00054263000000",
    "MEAN_MOTION_DOT": "0.00004314",
    "MEAN_MOTION_DDOT": "0.0000000000000",
    "SEMIMAJOR_AXIS": "8032.954",
    "PERIOD": "119.419",
    "APOAPSIS": "2920.247",
    "PERIAPSIS": "389.392",
    "OBJECT_TYPE": "DEBRIS",
    "RCS_SIZE": "MEDIUM",
    "COUNTRY_CODE": "CIS",
    "LAUNCH_DATE": "1964-07-10",
    "SITE": "TTMTR",
    "DECAY_DATE": null,
    "FILE": "3231740",
    "GP_ID": "190990363",
    "TLE_LINE0": "0 ELEKTRON 3 DEB",
    "TLE_LINE1": "1 00831U 64038C   21337.45537176  .00004314  00000-0  54263-3 0  9992",
    "TLE_LINE2": "2 00831  60.7196 241.1105 1575295 295.3088  49.2971 12.05840375160460"
  },
  {
    "CCSDS_OMM_VERS": "2.0",
    "COMMENT": "GENERATED VIA SPACE-TRACK.ORG API",
    "CREATION_DATE": "2021-11-25T04:13:46",
    "ORIGINATOR": "18 SPCS",
    "OBJECT_NAME": "OPS 3662 (VELA 3)",
    "OBJECT_ID": "1964-040A",
    "CENTER_NAME": "EARTH",
    "REF_FRAME": "TEME",
    "TIME_SYSTEM": "UTC",
    "MEAN_ELEMENT_THEORY": "SGP4",
    "EPOCH": "2021-11-26T17:01:09.603552",
    "MEAN_MOTION": "0.23920357",
    "ECCENTRICITY": "0.79418290",
    "INCLINATION": "30.6979",
    "RA_OF_ASC_NODE": "171.0490",
    "ARG_OF_PERICENTER": "305.8375",
    "MEAN_ANOMALY": "359.4779",
    "EPHEMERIS_TYPE": "0",
    "CLASSIFICATION_TYPE": "U",
    "NORAD_CAT_ID": "836",
    "ELEMENT_SET_NO": "999",
    "REV_AT_EPOCH": "701",
    "BSTAR": "0.00000000000000",
    "MEAN_MOTION_DOT": "0.00000901",
    "MEAN_MOTION_DDOT": "0.0000000000000",
    "SEMIMAJOR_AXIS": "109620.069",
    "PERIOD": "6019.977",
    "APOAPSIS": "190300.318",
    "PERIAPSIS": "16183.550",
    "OBJECT_TYPE": "PAYLOAD",
    "RCS_SIZE": "MEDIUM",
    "COUNTRY_CODE": "US",
    "LAUNCH_DATE": "1964-07-17",
    "SITE": "AFETR",
    "DECAY_DATE": null,
    "FILE": "3223205",
    "GP_ID": "190404623",
    "TLE_LINE0": "0 OPS 3662 (VELA 3)",
    "TLE_LINE1": "1 00836U 64040A   21330.70913893  .00000901  00000-0  00000-0 0  9990",
    "TLE_LINE2": "2 00836  30.6979 171.0490 7941829 305.8375 359.4779  0.23920357  7019"
  },
  {
    "CCSDS_OMM_VERS": "2.0",
    "COMMENT": "GENERATED VIA SPACE-TRACK.ORG API",
    "CREATION_DATE": "2021-11-16T04:03:04",
    "ORIGINATOR": "18 SPCS",
    "OBJECT_NAME": "OPS 3674 (VELA 4)",
    "OBJECT_ID": "1964-040B",
    "CENTER_NAME": "EARTH",
    "REF_FRAME": "TEME",
    "TIME_SYSTEM": "UTC",
    "MEAN_ELEMENT_THEORY": "SGP4",
    "EPOCH": "2021-11-20T17:44:29.293152",
    "MEAN_MOTION": "0.23990257",
    "ECCENTRICITY": "0.36854730",
    "INCLINATION": "44.5418",
    "RA_OF_ASC_NODE": "152.7675",
    "ARG_OF_PERICENTER": "309.3001",
    "MEAN_ANOMALY": "0.2030",
    "EPHEMERIS_TYPE": "0",
    "CLASSIFICATION_TYPE": "U",
    "NORAD_CAT_ID": "837",
    "ELEMENT_SET_NO": "999",
    "REV_AT_EPOCH": "5071",
    "BSTAR": "0.00000000000000",
    "MEAN_MOTION_DOT": "0.00000522",
    "MEAN_MOTION_DDOT": "0.0000000000000",
    "SEMIMAJOR_AXIS": "109407.033",
    "PERIOD": "6002.437",
    "APOAPSIS": "143350.565",
    "PERIAPSIS": "62707.231",
    "OBJECT_TYPE": "PAYLOAD",
    "RCS_SIZE": "MEDIUM",
    "COUNTRY_CODE": "US",
    "LAUNCH_DATE": "1964-07-17",
    "SITE": "AFETR",
    "DECAY_DATE": null,
    "FILE": "3215928",
    "GP_ID": "189818100",
    "TLE_LINE0": "0 OPS 3674 (VELA 4)",
    "TLE_LINE1": "1 00837U 64040B   21324.73922793  .00000522  00000-0  00000-0 0  9995",
    "TLE_LINE2": "2 00837  44.5418 152.7675 3685473 309.3001   0.2030  0.23990257 50716"
  },
  {
    "CCSDS_OMM_VERS": "2.0",
    "COMMENT": "GENERATED VIA SPACE-TRACK.ORG API",
    "CREATION_DATE": "2021-12-03T17:32:05",
    "ORIGINATOR": "18 SPCS",
    "OBJECT_NAME": "SYNCOM 3",
    "OBJECT_ID": "1964-047A",
    "CENTER_NAME": "EARTH",
    "REF_FRAME": "TEME",
    "TIME_SYSTEM": "UTC",
    "MEAN_ELEMENT_THEORY": "SGP4",
    "EPOCH": "2021-12-03T09:57:18.864288",
    "MEAN_MOTION": "1.00188676",
    "ECCENTRICITY": "0.00018490",
    "INCLINATION": "2.9217",
    "RA_OF_ASC_NODE": "77.0943",
    "ARG_OF_PERICENTER": "113.5334",
    "MEAN_ANOMALY": "235.6046",
    "EPHEMERIS_TYPE": "0",
    "CLASSIFICATION_TYPE": "U",
    "NORAD_CAT_ID": "858",
    "ELEMENT_SET_NO": "999",
    "REV_AT_EPOCH": "3684",
    "BSTAR": "0.00000000000000",
    "MEAN_MOTION_DOT": "0.00000146",
    "MEAN_MOTION_DDOT": "0.0000000000000",
    "SEMIMAJOR_AXIS": "42188.047",
    "PERIOD": "1437.288",
    "APOAPSIS": "35817.712",
    "PERIAPSIS": "35802.111",
    "OBJECT_TYPE": "PAYLOAD",
    "RCS_SIZE": "LARGE",
    "COUNTRY_CODE": "US",
    "LAUNCH_DATE": "1964-08-19",
    "SITE": "AFETR",
    "DECAY_DATE": null,
    "FILE": "3231740",
    "GP_ID": "190989614",
    "TLE_LINE0": "0 SYNCOM 3",
    "TLE_LINE1": "1 00858U 64047A   21337.41480167  .00000146  00000-0  00000-0 0  9990",
    "TLE_LINE2": "2 00858   2.9217  77.0943 0001849 113.5334 235.6046  1.00188676 36840"
  }
]
